[{"OBJECT_NAME":"LEMUR-2-PETERG","OBJECT_ID":"2017-042S","EPOCH":"2026-03-09T11:34:35.656032","MEAN_MOTION":15.29611459,"ECCENTRICITY":0.00037,"INCLINATION":97.398,"RA_OF_ASC_NODE":253.6596,"ARG_OF_PERICENTER":341.6938,"MEAN_ANOMALY":18.4169,"EPHEMERIS_TYPE":0,"CLASSIFICATION_TYPE":"U","NORAD_CAT_ID":42841,"ELEMENT_SET_NO":999,"REV_AT_EPOCH":47317,"BSTAR":0.00081076471,"MEAN_MOTION_DOT":0.0002324,"MEAN_MOTION_DDOT":0},{"OBJECT_NAME":"STARLINK-31984","OBJECT_ID":"2024-111C","EPOCH":"2026-03-09T20:05:31.997760","MEAN_MOTION":15.30204687,"ECCENTRICITY":5.745e-5,"INCLINATION":53.1607,"RA_OF_ASC_NODE":75.1119,"ARG_OF_PERICENTER":114.5206,"MEAN_ANOMALY":245.5855,"EPHEMERIS_TYPE":0,"CLASSIFICATION_TYPE":"U","NORAD_CAT_ID":60018,"ELEMENT_SET_NO":999,"REV_AT_EPOCH":9890,"BSTAR":-5.5753897e-5,"MEAN_MOTION_DOT":-2.01e-5,"MEAN_MOTION_DDOT":0}]
